SatCatId,ObjectName,LaunchYear,OrbitalPeriod,LaunchMass,StatusCode,Inclination,Status,UcsData,OrbitClassEstimated,LaunchSiteCountry,Owner,UseType,Purpose,LaunchVehicleClass,TLE1,TLE2,MeanMotion,Eccentricity,OrbitClass
49458,STARLINK-3156,2021,95.44,260.0,+,53.21,Active,1,LEO,USA,USA,Commercial,Communications,Falcon,1 49458U 21104BC  23276.31940264  .00006351  00000+0  41662-3 0  9993,2 49458  53.2145 247.1676 0001385  98.8711 261.2438 15.08852244104668,15.08852244,0.0001385,LEO
49459,STARLINK-3141,2021,95.44,260.0,+,53.22,Active,1,LEO,USA,USA,Commercial,Communications,Falcon,1 49459U 21104BD  23276.24212423  .00001134  00000+0  89311-4 0  9993,2 49459  53.2156 247.5184 0001358  95.9897 264.1250 15.08848545104654,15.08848545,0.0001358,LEO
49460,STARLINK-3140,2021,95.44,260.0,+,53.22,Active,1,LEO,USA,USA,Commercial,Communications,Falcon,1 49460U 21104BE  23276.43716569  .00009946  00000+0  64178-3 0  9998,2 49460  53.2160 246.6421 0001474  93.8751 266.2409 15.08858132104674,15.08858132,0.0001474,LEO
49469,GLOBAL-14,2021,93.21,55.0,+,42.01,Active,1,LEO,New Zealand,USA,Commercial,Earth Observation,Electron,1 49469U 21106A   23276.55248907  .00007951  00000+0  17197-3 0  9991,2 49469  42.0113 298.2649 0007795  59.7172 300.4440 15.44719766105948,15.44719766,0.0007795,LEO
49470,GLOBAL-15,2021,93.49,55.0,+,42.01,Active,1,LEO,New Zealand,USA,Commercial,Earth Observation,Electron,1 49470U 21106B   23276.53440475  .00032322  00000+0  78557-3 0  9992,2 49470  42.0061 338.5786 0016506  39.1069 321.0961 15.40217573105480,15.40217573,0.0016506,LEO
49492,GAOFEN-11 03,2021,94.52,3000.0,+,97.36,Active,1,LEO,PRC,China,Government,Earth Observation,Long March,1 49492U 21107A   23276.55861958  .00011190  00000+0  47150-3 0  9997,2 49492  97.3588 333.4908 0002437 338.3204  21.7930 15.23500033104255,15.23500033,0.0002437,LEO
49495,GAOFEN-3 02,2021,99.85,2500.0,+,98.42,Active,1,LEO,PRC,China,Government,Earth Observation,Long March,1 49495U 21109A   23276.59088430  .00000146  00000+0  57402-4 0  9993,2 49495  98.4161 282.4749 0001919  71.5676 288.5722 14.42209664 97963,14.42209664,0.0001919,LEO
49501,SHIYAN 11 (SY-11),2021,93.94,200.0,+,97.44,Active,1,LEO,PRC,China,Government,Technology Development,Kuaizhou,1 49501U 21112A   23276.54843792  .00014198  00000+0  44931-3 0  9994,2 49501  97.4368 290.3486 0010693  43.7877 316.4211 15.32820346103393,15.32820346,0.0010693,LEO
49503,COSMOS 2552,2021,718.02,2000.0,+,63.36,Active,1,MEO,Russia,Russia/USSR,Military,Earth Observation,Soyuz,1 49503U 21113A   23268.98450184 -.00000977  00000+0  00000+0 0  9991,2 49503  63.3578 310.4454 6913829 270.7419  17.4069  2.00552757 13446,2.00552757,0.6913829,MEO
49505,CHINASAT 1D (ZX 1D),2021,1436.1,2500.0,+,0.27,Active,1,GSO,PRC,China,Commercial,Communications,Long March,1 49505U 21114A   23276.55893716 -.00000345  00000+0  00000+0 0  9997,2 49505   0.2715 271.0068 0001955 309.2403 123.1456  1.00271675  6934,1.00271675,0.0001955,GEO
49724,STARLINK-3219,2021,95.44,260.0,+,53.22,Active,1,LEO,USA,USA,Commercial,Communications,Falcon,1 49724U 21115A   23276.43995617  .00001238  00000+0  95836-4 0  9998,2 49724  53.2161 176.8501 0001687  83.4649 276.6535 15.08841013101434,15.08841013,0.0001687,LEO
49725,STARLINK-3218,2021,95.44,260.0,+,53.21,Active,1,LEO,USA,USA,Commercial,Communications,Falcon,1 49725U 21115B   23276.52826013  .00005135  00000+0  34053-3 0  9995,2 49725  53.2141 176.3396 0001448  91.7844 268.3314 15.08837868101452,15.08837868,0.0001448,LEO
49726,STARLINK-3237,2021,95.44,260.0,+,53.22,Active,1,LEO,USA,USA,Commercial,Communications,Falcon,1 49726U 21115C   23276.01580770  .00002683  00000+0  18659-3 0  9996,2 49726  53.2162 188.5355 0001461  98.1144 262.0014 15.08843030101237,15.0884303,0.0001461,LEO
49727,STARLINK-3242,2021,95.44,260.0,+,53.22,Active,1,LEO,USA,USA,Commercial,Communications,Falcon,1 49727U 21115D   23276.48316604  .00007316  00000+0  47728-3 0  9998,2 49727  53.2150 186.4347 0001561  90.2217 269.8954 15.08841283102426,15.08841283,0.0001561,LEO
49728,STARLINK-3240,2021,95.44,260.0,+,53.22,Active,1,LEO,USA,USA,Commercial,Communications,Falcon,1 49728U 21115E   23276.15564021  .00000656  00000+0  59273-4 0  9990,2 49728  53.2176 187.9032 0001690  81.3748 278.7436 15.08855477101259,15.08855477,0.000169,LEO
49729,STARLINK-3251,2021,95.44,260.0,+,53.21,Active,1,LEO,USA,USA,Commercial,Communications,Falcon,1 49729U 21115F   23276.55772819  .00002568  00000+0  17939-3 0  9997,2 49729  53.2144 186.1089 0001387  97.3409 262.7741 15.08834336101312,15.08834336,0.0001387,LEO
49730,STARLINK-3249,2021,95.44,260.0,+,53.22,Active,1,LEO,USA,USA,Commercial,Communications,Falcon,1 49730U 21115G   23276.45006879  .00004212  00000+0  28250-3 0  9990,2 49730  53.2156 186.7775 0001028 105.1039 255.0067 15.08848476101297,15.08848476,0.0001028,LEO
49731,STARLINK-3228,2021,95.44,260.0,+,53.22,Active,1,LEO,USA,USA,Commercial,Communications,Falcon,1 49731U 21115H   23276.49420510  .00000548  00000+0  52507-4 0  9998,2 49731  53.2164 186.3838 0001334  97.1320 262.9824 15.08836991102418,15.08836991,0.0001334,LEO
49732,STARLINK-3246,2021,95.44,260.0,+,53.22,Active,1,LEO,USA,USA,Commercial,Communications,Falcon,1 49732U 21115J   23276.17499508  .00009449  00000+0  61074-3 0  9994,2 49732  53.2174 187.7888 0001394 103.4237 256.6911 15.08854591101258,15.08854591,0.0001394,LEO
49733,STARLINK-3252,2021,95.44,260.0,+,53.22,Active,1,LEO,USA,USA,Commercial,Communications,Falcon,1 49733U 21115K   23276.17036521  .00009524  00000+0  61555-3 0  9995,2 49733  53.2151 187.8385 0001177  90.5549 269.5578 15.08848723101250,15.08848723,0.0001177,LEO
49734,STARLINK-3238,2021,95.44,260.0,+,53.22,Active,1,LEO,USA,USA,Commercial,Communications,Falcon,1 49734U 21115L   23276.45465193  .00000540  00000+0  52016-4 0  9990,2 49734  53.2150 176.5889 0001261  85.8656 274.2480 15.08837550101446,15.0883755,0.0001261,LEO
49735,STARLINK-3113,2021,95.44,260.0,+,53.22,Active,1,LEO,USA,USA,Commercial,Communications,Falcon,1 49735U 21115M   23276.17131369  .00011336  00000+0  72884-3 0  9994,2 49735  53.2169 187.8038 0001540 106.5767 253.5394 15.08858643101251,15.08858643,0.000154,LEO
49736,STARLINK-3148,2021,95.44,260.0,+,53.21,Active,1,LEO,USA,USA,Commercial,Communications,Falcon,1 49736U 21115N   23276.45095279  .00004245  00000+0  28459-3 0  9995,2 49736  53.2143 176.4629 0001427  93.6736 266.4419 15.08842646101448,15.08842646,0.0001427,LEO
49737,STARLINK-3225,2021,95.44,260.0,+,53.22,Active,1,LEO,USA,USA,Commercial,Communications,Falcon,1 49737U 21115P   23276.45833594 -.00000548  00000+0 -16338-4 0  9994,2 49737  53.2164 176.5464 0001667  86.1667 273.9516 15.08832234101449,15.08832234,0.0001667,LEO
49738,STARLINK-3143,2021,95.44,260.0,+,53.22,Active,1,LEO,USA,USA,Commercial,Communications,Falcon,1 49738U 21115Q   23276.46568693  .00001602  00000+0  11874-3 0  9990,2 49738  53.2157 176.5116 0001295  97.4144 262.6996 15.08842067101440,15.08842067,0.0001295,LEO
49739,STARLINK-3155,2021,95.44,260.0,+,53.22,Active,1,LEO,USA,USA,Commercial,Communications,Falcon,1 49739U 21115R   23276.44637478  .00000331  00000+0  38937-4 0  9995,2 49739  53.2150 186.5996 0001984  88.7369 271.3850 15.08832795101294,15.08832795,0.0001984,LEO
49740,STARLINK-3226,2021,95.44,260.0,+,53.22,Active,1,LEO,USA,USA,Commercial,Communications,Falcon,1 49740U 21115S   23276.01031547  .00002503  00000+0  17526-3 0  9998,2 49740  53.2159 178.5293 0001573 106.5113 253.6052 15.08847150101373,15.0884715,0.0001573,LEO
49741,STARLINK-3244,2021,95.44,260.0,+,53.22,Active,1,LEO,USA,USA,Commercial,Communications,Falcon,1 49741U 21115T   23276.13912048  .00006446  00000+0  42257-3 0  9995,2 49741  53.2163 177.9880 0001611 107.4957 252.6211 15.08852594101399,15.08852594,0.0001611,LEO
49742,STARLINK-3202,2021,95.44,260.0,+,53.22,Active,1,LEO,USA,USA,Commercial,Communications,Falcon,1 49742U 21115U   23276.41784427  .00004141  00000+0  27808-3 0  9990,2 49742  53.2161 176.7292 0001354  97.4925 262.6221 15.08840713101436,15.08840713,0.0001354,LEO
49743,STARLINK-3239,2021,95.44,260.0,+,53.22,Active,1,LEO,USA,USA,Commercial,Communications,Falcon,1 49743U 21115V   23276.46663895  .00005572  00000+0  36780-3 0  9999,2 49743  53.2155 176.4409 0001616  78.6526 281.4647 15.08848618101440,15.08848618,0.0001616,LEO
49744,STARLINK-3231,2021,95.44,260.0,+,53.22,Active,1,LEO,USA,USA,Commercial,Communications,Falcon,1 49744U 21115W   23276.01767078  .00006849  00000+0  44789-3 0  9995,2 49744  53.2152 178.4189 0001326  97.9026 262.2117 15.08847582101372,15.08847582,0.0001326,LEO
49745,STARLINK-3241,2021,95.44,260.0,+,53.22,Active,1,LEO,USA,USA,Commercial,Communications,Falcon,1 49745U 21115X   23276.14647468  .00010765  00000+0  69309-3 0  9997,2 49745  53.2155 177.9176 0001272  97.8517 262.2620 15.08856190101396,15.0885619,0.0001272,LEO
49746,STARLINK-3233,2021,95.44,260.0,+,53.22,Active,1,LEO,USA,USA,Commercial,Communications,Falcon,1 49746U 21115Y   23276.43256898  .00001751  00000+0  12810-3 0  9993,2 49746  53.2155 176.6599 0001416  95.2191 264.8963 15.08837294101439,15.08837294,0.0001416,LEO
49747,STARLINK-3247,2021,95.44,260.0,+,53.22,Active,1,LEO,USA,USA,Commercial,Communications,Falcon,1 49747U 21115Z   23276.55400994  .00012968  00000+0  83129-3 0  9998,2 49747  53.2153 176.1187 0001694 106.5658 253.5520 15.08844711101456,15.08844711,0.0001694,LEO
49748,STARLINK-3248,2021,95.44,260.0,+,53.22,Active,1,LEO,USA,USA,Commercial,Communications,Falcon,1 49748U 21115AA  23276.44088530  .00003652  00000+0  24742-3 0  9991,2 49748  53.2150 176.6326 0001232 100.1129 260.0002 15.08838273101448,15.08838273,0.0001232,LEO
49749,STARLINK-3250,2021,95.44,260.0,+,53.21,Active,1,LEO,USA,USA,Commercial,Communications,Falcon,1 49749U 21115AB  23276.45195174  .00018010  00000+0  11471-2 0  9994,2 49749  53.2145 176.8162 0001098  88.1164 271.9954 15.08829628101437,15.08829628,0.0001098,LEO
